{"type":"FeatureCollection","features":[{"type":"Feature","properties":{"class":"primary"},"geometry":{"type":"LineString","coordinates":[[-122.6825000,45.5122000],[-122.6821923,45.5123795]}},{"type":"Feature","properties":{"class":"primary"},"geometry":{"type":"LineString","coordinates":[[-122.6821923,45.5123795],[-122.6818846,45.5125590]}},{"type":"Feature","properties":{"class":"primary"},"geometry":{"type":"LineString","coordinates":[[-122.6818846,45.5125590],[-122.6815769,45.5127385]}},{"type":"Feature","properties":{"class":"primary"},"geometry":{"type":"LineString","coordinates":[[-122.6815769,45.5127385],[-122.6812692,45.5129179]}},{"type":"Feature","properties":{"class":"primary"},"geometry":{"type":"LineString","coordinates":[[-122.6812692,45.5129179],[-122.6809615,45.5130974]}},{"type":"Feature","properties":{"class":"primary"},"geometry":{"type":"LineString","coordinates":[[-122.6809615,45.5130974],[-122.6806538,45.5132769]}},{"type":"Feature","properties":{"class":"primary"},"geometry":{"type":"LineString","coordinates":[[-122.6806538,45.5132769],[-122.6803462,45.5134564]}},{"type":"Feature","properties":{"class":"primary"},"geometry":{"type":"LineString","coordinates":[[-122.6803462,45.5134564],[-122.6800385,45.5136359]}},{"type":"Feature","properties":{"class":"primary"},"geometry":{"type":"LineString","coordinates":[[-122.6800385,45.5136359],[-122.6797308,45.5138154]}},{"type":"Feature","properties":{"class":"primary"},"geometry":{"type":"LineString","coordinates":[[-122.6797308,45.5138154],[-122.6794231,45.5139949]}},{"type":"Feature","properties":{"class":"primary"},"geometry":{"type":"LineString","coordinates":[[-122.6794231,45.5139949],[-122.6791154,45.5141744]}},{"type":"Feature","properties":{"class":"primary"},"geometry":{"type":"LineString","coordinates":[[-122.6791154,45.5141744],[-122.6788077,45.5143538]}},{"type":"Feature","properties":{"class":"primary"},"geometry":{"type":"LineString","coordinates":[[-122.6788077,45.5143538],[-122.6785000,45.5145333]}},{"type":"Feature","properties":{"class":"primary"},"geometry":{"type":"LineString","coordinates":[[-122.6785000,45.5145333],[-122.6781923,45.5147128]}},{"type":"Feature","properties":{"class":"primary"},"geometry":{"type":"LineString","coordinates":[[-122.6781923,45.5147128],[-122.6778846,45.5148923]}},{"type":"Feature","properties":{"class":"primary"},"geometry":{"type":"LineString","coordinates":[[-122.6778846,45.5148923],[-122.6775769,45.5150718]}},{"type":"Feature","properties":{"class":"primary"},"geometry":{"type":"LineString","coordinates":[[-122.6775769,45.5150718],[-122.6772692,45.5152513]}},{"type":"Feature","properties":{"class":"primary"},"geometry":{"type":"LineString","coordinates":[[-122.6772692,45.5152513],[-122.6769615,45.5154308]}},{"type":"Feature","properties":{"class":"primary"},"geometry":{"type":"LineString","coordinates":[[-122.6769615,45.5154308],[-122.6766538,45.5156103]}},{"type":"Feature","properties":{"class":"primary"},"geometry":{"type":"LineString","coordinates":[[-122.6766538,45.5156103],[-122.6763462,45.5157897]}},{"type":"Feature","properties":{"class":"primary"},"geometry":{"type":"LineString","coordinates":[[-122.6763462,45.5157897],[-122.6760385,45.5159692]}},{"type":"Feature","properties":{"class":"primary"},"geometry":{"type":"LineString","coordinates":[[-122.6760385,45.5159692],[-122.6757308,45.5161487]}},{"type":"Feature","properties":{"class":"primary"},"geometry":{"type":"LineString","coordinates":[[-122.6757308,45.5161487],[-122.6754231,45.5163282]}},{"type":"Feature","properties":{"class":"primary"},"geometry":{"type":"LineString","coordinates":[[-122.6754231,45.5163282],[-122.6751154,45.5165077]}},{"type":"Feature","properties":{"class":"primary"},"geometry":{"type":"LineString","coordinates":[[-122.6751154,45.5165077],[-122.6748077,45.5166872]}},{"type":"Feature","properties":{"class":"primary"},"geometry":{"type":"LineString","coordinates":[[-122.6748077,45.5166872],[-122.6745000,45.5168667]}},{"type":"Feature","properties":{"class":"primary"},"geometry":{"type":"LineString","coordinates":[[-122.6745000,45.5168667],[-122.6741923,45.5170462]}},{"type":"Feature","properties":{"class":"primary"},"geometry":{"type":"LineString","coordinates":[[-122.6741923,45.5170462],[-122.6738846,45.5172256]}},{"type":"Feature","properties":{"class":"primary"},"geometry":{"type":"LineString","coordinates":[[-122.6738846,45.5172256],[-122.6735769,45.5174051]}},{"type":"Feature","properties":{"class":"primary"},"geometry":{"type":"LineString","coordinates":[[-122.6735769,45.5174051],[-122.6732692,45.5175846]}},{"type":"Feature","properties":{"class":"primary"},"geometry":{"type":"LineString","coordinates":[[-122.6732692,45.5175846],[-122.6729615,45.5177641]}},{"type":"Feature","properties":{"class":"primary"},"geometry":{"type":"LineString","coordinates":[[-122.6729615,45.5177641],[-122.6726538,45.5179436]}},{"type":"Feature","properties":{"class":"primary"},"geometry":{"type":"LineString","coordinates":[[-122.6726538,45.5179436],[-122.6723462,45.5181231]}},{"type":"Feature","properties":{"class":"primary"},"geometry":{"type":"LineString","coordinates":[[-122.6723462,45.5181231],[-122.6720385,45.5183026]}},{"type":"Feature","properties":{"class":"primary"},"geometry":{"type":"LineString","coordinates":[[-122.6720385,45.5183026],[-122.6717308,45.5184821]}},{"type":"Feature","properties":{"class":"primary"},"geometry":{"type":"LineString","coordinates":[[-122.6717308,45.5184821],[-122.6714231,45.5186615]}},{"type":"Feature","properties":{"class":"primary"},"geometry":{"type":"LineString","coordinates":[[-122.6714231,45.5186615],[-122.6711154,45.5188410]}},{"type":"Feature","properties":{"class":"primary"},"geometry":{"type":"LineString","coordinates":[[-122.6711154,45.5188410],[-122.6708077,45.5190205]}},{"type":"Feature","properties":{"class":"primary"},"geometry":{"type":"LineString","coordinates":[[-122.6708077,45.5190205],[-122.6705000,45.5192000]}}]}